STARLINK-31640          
1 59748U 24090U   26068.32392241 -.00001083  00000+0 -29843-4 0  9999
2 59748  42.9976 185.5973 0001859 191.7433 168.3375 15.27571730103387
2025-313BC              
1 67298U 25313BC  26068.18968176  .00075331  00000+0  26410-2 0  9997
2 67298  97.3985 144.8110 0008478 328.9209  31.1528 15.29126358  7890
